NOAA 1                  
1 04793U 70106A   25317.09354366 -.00000041  00000+0  84416-5 0  9994
2 04793 101.3711 355.9669 0031721  51.0514   4.7277 12.54046591513601
NOAA 2 (ITOS-D)         
1 06235U 72082A   25317.33490623 -.00000016  00000+0  19303-3 0  9999
2 06235 102.0214 328.4510 0003937 220.1701 151.4837 12.53207188427915
NOAA 3                  
1 06920U 73086A   25317.27809183 -.00000019  00000+0  20385-3 0  9998
2 06920 102.2926 324.1400 0006494 161.0954 210.2853 12.40387858355138
NOAA 4                  
1 07529U 74089A   25317.50471073 -.00000021  00000+0  16292-3 0  9992
2 07529 102.0080 323.0124 0008811 248.0160 265.2888 12.53198385332507
NOAA 5                  
1 09057U 76077A   25317.47210278 -.00000006  00000+0  30660-3 0  9991
2 09057 102.2798 297.4683 0010098  14.9643 101.9517 12.37824058227786
TIROS N                 
1 11060U 78096A   25317.49175130  .00000460  00000+0  23915-3 0  9998
2 11060  98.4742 343.1247 0011122 143.1072 217.0872 14.19272244648150
NOAA 6                  
1 11416U 79057A   25317.48785824  .00000876  00000+0  32072-3 0  9992
2 11416  98.5873 343.2919 0010013 171.5642 188.5713 14.35320703420015
NOAA 7                  
1 12553U 81059A   25317.63854545  .00000207  00000+0  12349-3 0  9997
2 12553  98.8264  21.5445 0011810 160.2554 199.9080 14.17743656294207
NOAA 8                  
1 13923U 83022A   25317.45317301  .00000424  00000+0  18249-3 0  9991
2 13923  98.7385 324.8894 0015033 165.6844 194.4766 14.29706764220247
NOAA 9                  
1 15427U 84123A   25317.51227110  .00000330  00000+0  18734-3 0  9995
2 15427  99.1179 333.9627 0013823 238.8151 284.0629 14.16988223112879
NOAA 10                 
1 16969U 86073A   25317.48241225  .00000465  00000+0  20117-3 0  9999
2 16969  98.6894 306.2099 0010968 267.4065 259.6068 14.29082655 38605
NOAA 11                 
1 19531U 88089A   25317.60343875  .00000236  00000+0  14162-3 0  9993
2 19531  98.5925 265.6692 0010719 191.3059 168.7876 14.15787407916970
NOAA 12                 
1 21263U 91032A   25317.61488471  .00000364  00000+0  16840-3 0  9990
2 21263  98.6031 304.5358 0012686 300.9558  59.0376 14.26669125794220
NOAA 13                 
1 22739U 93050A   25317.42833286  .00000366  00000+0  21676-3 0  9993
2 22739  98.6768 263.5262 0010075  30.6940 329.4820 14.13587182662899
NOAA 14                 
1 23455U 94089A   25317.61530949  .00000240  00000+0  14646-3 0  9993
2 23455  98.4850 292.4773 0009267 350.1273   9.9718 14.14623277592720
NOAA 15                 
1 25338U 98030A   25317.59170714  .00000409  00000+0  18548-3 0  9994
2 25338  98.5250 338.8761 0009143 258.0271 101.9886 14.27053714430543
NOAA 16                 
1 26536U 00055A   25317.61038273  .00000278  00000+0  16832-3 0  9999
2 26536  98.4776 338.1450 0010101 194.4919 165.5967 14.13856642593263
NOAA 17                 
1 27453U 02032A   25317.63374719  .00000656  00000+0  29331-3 0  9993
2 27453  98.8353 276.1783 0010573 255.7665 104.2340 14.26107692216264
NOAA 18                 
1 28654U 05018A   25317.68108372  .00000339  00000+0  20288-3 0  9999
2 28654  98.8320  35.3079 0014867  46.6844 313.5565 14.13666807 55866
NOAA 19                 
1 33591U 09005A   25317.64209671  .00000199  00000+0  12980-3 0  9999
2 33591  98.9804  23.0947 0012785 280.5753  79.3979 14.13427395864033
SUOMI NPP               
1 37849U 11061A   25317.79432171  .00000309  00000+0  16741-3 0  9995
2 37849  98.7725 255.4029 0000737 178.4287 181.6891 14.19543494727882
NOAA 20 (JPSS-1)        
1 43013U 17073A   25317.73871293  .00000283  00000+0  15523-3 0  9998
2 43013  98.7552 254.3593 0001534 129.0557 231.0756 14.19514612413907
NOAA 21 (JPSS-2)        
1 54234U 22150A   25317.63279233  .00000332  00000+0  17836-3 0  9996
2 54234  98.7415 254.3108 0002727  90.3681 269.7808 14.19512486155969
